KZ-11 R/B               
1 69628U 26138H   26193.90834216  .00780150  97501-5  75497-3 0  9998
2 69628  55.1520 167.7492 0377051 143.6026 219.1292 15.43010363  3894
CENTISPACE-1 GROUP 05 O*
1 69636U 26138J   26194.40472368 -.00000256  00000+0 -51944-4 0  9997
2 69636  55.1383 184.3032 0009547 341.3483  18.7141 14.15842380  3707
VICTUS HAZE PUMA        
1 69646U 26142A   26195.78469194  .00001975  00000+0  92002-4 0  9995
2 69646  97.4467  93.0928 0025040 267.3590  92.4779 15.20845903  3866
HOKUSHIN-1              
1 69648U 98067YH  26195.90634007  .00016390  00000+0  28430-3 0  9993
2 69648  51.6309 162.6670 0006091 329.3838  30.6795 15.50995036  3959
STARLINK-37656          
1 69649U 26143A   26196.08727718  .00030171  00000+0  55396-3 0  9996
2 69649  97.2845 239.9687 0000699  91.0701 269.0631 15.49206293  4863
STARLINK-37646          
1 69650U 26143B   26196.07814507  .00004561  00000+0  85440-4 0  9998
2 69650  97.2852 240.1363 0000948 345.7107  14.4117 15.49201304  4874
STARLINK-37749          
1 69651U 26143C   26196.08502468  .00017678  00000+0  32587-3 0  9996
2 69651  97.2844 240.1266 0000604 140.3115 219.8181 15.49199456  4871
STARLINK-37819          
1 69652U 26143D   26196.09659889  .00027576  00000+0  50690-3 0  9991
2 69652  97.2855 240.1123 0000771 112.8055 247.3277 15.49190630  4875
STARLINK-37729          
1 69653U 26143E   26196.16670139  .00077393  00000+0  34959-3 0  9993
2 69653  97.2819 240.5725 0002490 186.3523  39.2689 15.83787139  4952
STARLINK-37838          
1 69654U 26143F   26196.13158319  .00012675  00000+0  23433-3 0  9999
2 69654  97.2844 240.2170 0001069  55.8302 304.3051 15.49190830  4887
STARLINK-37884          
1 69655U 26143G   26196.10495546  .00023294  00000+0  42842-3 0  9997
2 69655  97.2839 240.0987 0000473  53.5821 306.5474 15.49208298  4875
STARLINK-37876          
1 69656U 26143H   26196.06742310  .00016625  00000+0  30652-3 0  9993
2 69656  97.2843 240.1514 0001464  91.0726 269.0693 15.49205196  4803
STARLINK-37784          
1 69657U 26143J   26196.09750383  .00032667  00000+0  60018-3 0  9999
2 69657  97.2844 240.1107 0001981 112.8639 247.2821 15.49170732  4800
STARLINK-37851          
1 69658U 26143K   26196.13416679  .00015304  00000+0  28236-3 0  9997
2 69658  97.2847 240.2137 0000598  79.3590 280.7728 15.49203934  4814
STARLINK-37229          
1 69659U 26143L   26196.08907269  .00017180  00000+0  31672-3 0  9994
2 69659  97.2846 240.1199 0000895  91.4928 268.6426 15.49202261  4813
STARLINK-37556          
1 69660U 26143M   26196.16670139 -.02935211  00000+0 -72788-1 0  9997
2 69660  97.2847 240.2291 0002502  83.9997  43.0890 15.43992353  4899
STARLINK-37867          
1 69661U 26143N   26196.06984291  .00015267  00000+0  28168-3 0  9995
2 69661  97.2847 240.1489 0001501  80.0224 280.1196 15.49204020  4804
STARLINK-37852          
1 69662U 26143P   26196.10159597  .00012998  00000+0  24014-3 0  9998
2 69662  97.2855 240.1043 0000932 117.4793 242.6553 15.49203467  4807
STARLINK-37554          
1 69663U 26143Q   26196.07929977  .00015676  00000+0  28916-3 0  9993
2 69663  97.2843 240.1336 0001076 107.7041 252.4328 15.49206058  4817
STARLINK-37830          
1 69664U 26143R   26196.09441874  .00023467  00000+0  43169-3 0  9995
2 69664  97.2844 240.1138 0001608 110.2666 249.8758 15.49199238  4809
STARLINK-37837          
1 69665U 26143S   26196.16670139 -.00000552  00000+0 -13119-4 0  9997
2 69665  97.2836 240.2235 0001034  63.2253  62.8503 15.36968124  4852
STARLINK-37943          
1 69666U 26143T   26196.09388703  .00015294  00000+0  28219-3 0  9996
2 69666  97.2845 240.1149 0001289  98.0616 262.0781 15.49202699  4806
STARLINK-37941          
1 69667U 26143U   26196.08125902  .00020596  00000+0  37911-3 0  9996
2 69667  97.2846 240.1313 0000800  82.3411 277.7931 15.49209516  4803
STARLINK-37930          
1 69668U 26143V   26196.08073372  .00007906  00000+0  14696-3 0  9995
2 69668  97.2842 240.1315 0001167 105.2826 254.8554 15.49173111  4802
STARLINK-37945          
1 69669U 26143W   26196.06782453  .00035489  00000+0  65063-3 0  9992
2 69669  97.2842 240.1502 0001176  84.8601 275.2785 15.49216260  4800
STARLINK-37948          
1 69670U 26143X   26196.11572669  .00028739  00000+0  52779-3 0  9996
2 69670  97.2866 240.0861 0001356  48.6006 311.5361 15.49208616  4802
STARLINK-37949          
1 69671U 26143Y   26196.09132669  .00022050  00000+0  40585-3 0  9998
2 69671  97.2843 240.1178 0000319 107.3127 252.8159 15.49196273  4802
STARLINK-37946          
1 69672U 26143Z   26196.07739499  .00020768  00000+0  38229-3 0  9997
2 69672  97.2841 240.1374 0000887  73.6959 286.4389 15.49205965  4804
TJS-26A                 
1 69674U 26144A   26193.29904564 -.00000341  00000+0  00000+0 0  9996
2 69674   6.9538 323.2302 0004208 347.4913 194.6526  1.00274367   198
CZ-7A R/B               
1 69675U 26144B   26195.69194389  .00841495  18155-4  93323-3 0  9990
2 69675  19.4463 315.2678 7100116 196.2857 116.7267  2.58946557   559
